UNKNOWN                 
1 83903U          25351.92785503 -.00000019  00000+0  00000+0 0  9997
2 83903   6.1716 290.5743 0123869 251.7591 319.7951  0.99110908 43712
UNKNOWN                 
1 83934U          25344.85026985 -.00000109  00000+0  00000+0 0  9997
2 83934   5.7866 297.5267 0232633 273.3758 209.9168  1.02662910 45262
UNKNOWN                 
1 83970U          25349.27511074  .00004383  00000+0  47991-2 0  9996
2 83970  18.2638 216.3258 5068702 149.8498 252.8700  5.32074901196343
UNKNOWN                 
1 84006U          25342.94811084 -.00000044  00000+0  00000+0 0  9996
2 84006  22.4615 178.3059 6147968  59.4088 347.1938  2.16233493 84143
UNKNOWN                 
1 84188U          25351.83355918  .00304273  00000+0  15295+0 0  9996
2 84188  65.1749 253.7289 3767197  18.1373 352.3612  7.59069426 41658
UNKNOWN                 
1 84232U          25351.87692402  .00009111  00000+0  74201-2 0  9990
2 84232  20.3165 271.2448 6560213  69.7244 346.4354  3.17316540104858
UNKNOWN                 
1 84236U          25343.56048229  .00000584  00000+0  43682-2 0  9997
2 84236   9.4466 336.4617 6895252  91.5164 341.7354  2.62521322113891
UNKNOWN                 
1 84292U          25343.14543195  .00004329  00000+0  23844-2 0  9994
2 84292  23.8474 165.3015 4565536 231.3629  78.1844  6.21471633227844
UNKNOWN                 
1 84406U          25344.68568743  .00000996  00000+0  54284-2 0  9995
2 84406 101.7175 128.8030 0040104  42.6195 331.9484 12.67327549 49038
UNKNOWN                 
1 84407U          25352.28367276 -.00000020  00000+0  24013-1 0  9994
2 84407  19.4861 320.8514 7202282  64.8435 351.3058  2.05768662 75986
UNKNOWN                 
1 84575U          25349.57665520  .00000068  00000+0  16162-2 0  9999
2 84575  18.1224 157.5669 7100283  24.2282 357.0795  2.19886827 65524
UNKNOWN                 
1 84932U          25352.58966149  .00000584  00000+0  49749-2 0  9992
2 84932   2.0527 241.3202 6576316  61.2624 161.4146  2.99958379131956
