CCSDS_OMM_VERS = 2.0
CREATION_DATE  = 
ORIGINATOR     = 

OBJECT_NAME    = UNKNOWN
OBJECT_ID      = 
CENTER_NAME    = EARTH
REF_FRAME      = TEME
TIME_SYSTEM    = UTC
MEAN_ELEMENT_THEORY = SGP/SGP4

EPOCH          = 2025-12-17T22:16:06.674592
MEAN_MOTION    = 0.99110908
ECCENTRICITY   = .0123869
INCLINATION    = 6.1716
RA_OF_ASC_NODE = 290.5743
ARG_OF_PERICENTER = 251.7591
MEAN_ANOMALY   = 319.7951

EPHEMERIS_TYPE = 0
CLASSIFICATION_TYPE = U
NORAD_CAT_ID   = 83903
ELEMENT_SET_NO = 999
REV_AT_EPOCH   = 4371
BSTAR          = 0
MEAN_MOTION_DOT = -.19E-6
MEAN_MOTION_DDOT = 0

CCSDS_OMM_VERS = 2.0
CREATION_DATE  = 
ORIGINATOR     = 

OBJECT_NAME    = UNKNOWN
OBJECT_ID      = 
CENTER_NAME    = EARTH
REF_FRAME      = TEME
TIME_SYSTEM    = UTC
MEAN_ELEMENT_THEORY = SGP/SGP4

EPOCH          = 2025-12-10T20:24:23.315040
MEAN_MOTION    = 1.02662910
ECCENTRICITY   = .0232633
INCLINATION    = 5.7866
RA_OF_ASC_NODE = 297.5267
ARG_OF_PERICENTER = 273.3758
MEAN_ANOMALY   = 209.9168

EPHEMERIS_TYPE = 0
CLASSIFICATION_TYPE = U
NORAD_CAT_ID   = 83934
ELEMENT_SET_NO = 999
REV_AT_EPOCH   = 4526
BSTAR          = 0
MEAN_MOTION_DOT = -.109E-5
MEAN_MOTION_DDOT = 0

CCSDS_OMM_VERS = 2.0
CREATION_DATE  = 
ORIGINATOR     = 

OBJECT_NAME    = UNKNOWN
OBJECT_ID      = 
CENTER_NAME    = EARTH
REF_FRAME      = TEME
TIME_SYSTEM    = UTC
MEAN_ELEMENT_THEORY = SGP/SGP4

EPOCH          = 2025-12-15T06:36:09.567936
MEAN_MOTION    = 5.32074901
ECCENTRICITY   = .5068702
INCLINATION    = 18.2638
RA_OF_ASC_NODE = 216.3258
ARG_OF_PERICENTER = 149.8498
MEAN_ANOMALY   = 252.8700

EPHEMERIS_TYPE = 0
CLASSIFICATION_TYPE = U
NORAD_CAT_ID   = 83970
ELEMENT_SET_NO = 999
REV_AT_EPOCH   = 19634
BSTAR          = .47991E-2
MEAN_MOTION_DOT = .4383E-4
MEAN_MOTION_DDOT = 0

CCSDS_OMM_VERS = 2.0
CREATION_DATE  = 
ORIGINATOR     = 

OBJECT_NAME    = UNKNOWN
OBJECT_ID      = 
CENTER_NAME    = EARTH
REF_FRAME      = TEME
TIME_SYSTEM    = UTC
MEAN_ELEMENT_THEORY = SGP/SGP4

EPOCH          = 2025-12-08T22:45:16.776576
MEAN_MOTION    = 2.16233493
ECCENTRICITY   = .6147968
INCLINATION    = 22.4615
RA_OF_ASC_NODE = 178.3059
ARG_OF_PERICENTER = 59.4088
MEAN_ANOMALY   = 347.1938

EPHEMERIS_TYPE = 0
CLASSIFICATION_TYPE = U
NORAD_CAT_ID   = 84006
ELEMENT_SET_NO = 999
REV_AT_EPOCH   = 8414
BSTAR          = 0
MEAN_MOTION_DOT = -.44E-6
MEAN_MOTION_DDOT = 0

CCSDS_OMM_VERS = 2.0
CREATION_DATE  = 
ORIGINATOR     = 

OBJECT_NAME    = UNKNOWN
OBJECT_ID      = 
CENTER_NAME    = EARTH
REF_FRAME      = TEME
TIME_SYSTEM    = UTC
MEAN_ELEMENT_THEORY = SGP/SGP4

EPOCH          = 2025-12-17T20:00:19.513152
MEAN_MOTION    = 7.59069426
ECCENTRICITY   = .3767197
INCLINATION    = 65.1749
RA_OF_ASC_NODE = 253.7289
ARG_OF_PERICENTER = 18.1373
MEAN_ANOMALY   = 352.3612

EPHEMERIS_TYPE = 0
CLASSIFICATION_TYPE = U
NORAD_CAT_ID   = 84188
ELEMENT_SET_NO = 999
REV_AT_EPOCH   = 4165
BSTAR          = .15295E+0
MEAN_MOTION_DOT = .304273E-2
MEAN_MOTION_DDOT = 0

CCSDS_OMM_VERS = 2.0
CREATION_DATE  = 
ORIGINATOR     = 

OBJECT_NAME    = UNKNOWN
OBJECT_ID      = 
CENTER_NAME    = EARTH
REF_FRAME      = TEME
TIME_SYSTEM    = UTC
MEAN_ELEMENT_THEORY = SGP/SGP4

EPOCH          = 2025-12-17T21:02:46.235328
MEAN_MOTION    = 3.17316540
ECCENTRICITY   = .6560213
INCLINATION    = 20.3165
RA_OF_ASC_NODE = 271.2448
ARG_OF_PERICENTER = 69.7244
MEAN_ANOMALY   = 346.4354

EPHEMERIS_TYPE = 0
CLASSIFICATION_TYPE = U
NORAD_CAT_ID   = 84232
ELEMENT_SET_NO = 999
REV_AT_EPOCH   = 10485
BSTAR          = .74201E-2
MEAN_MOTION_DOT = .9111E-4
MEAN_MOTION_DDOT = 0

CCSDS_OMM_VERS = 2.0
CREATION_DATE  = 
ORIGINATOR     = 

OBJECT_NAME    = UNKNOWN
OBJECT_ID      = 
CENTER_NAME    = EARTH
REF_FRAME      = TEME
TIME_SYSTEM    = UTC
MEAN_ELEMENT_THEORY = SGP/SGP4

EPOCH          = 2025-12-09T13:27:05.669856
MEAN_MOTION    = 2.62521322
ECCENTRICITY   = .6895252
INCLINATION    = 9.4466
RA_OF_ASC_NODE = 336.4617
ARG_OF_PERICENTER = 91.5164
MEAN_ANOMALY   = 341.7354

EPHEMERIS_TYPE = 0
CLASSIFICATION_TYPE = U
NORAD_CAT_ID   = 84236
ELEMENT_SET_NO = 999
REV_AT_EPOCH   = 11389
BSTAR          = .43682E-2
MEAN_MOTION_DOT = .584E-5
MEAN_MOTION_DDOT = 0

CCSDS_OMM_VERS = 2.0
CREATION_DATE  = 
ORIGINATOR     = 

OBJECT_NAME    = UNKNOWN
OBJECT_ID      = 
CENTER_NAME    = EARTH
REF_FRAME      = TEME
TIME_SYSTEM    = UTC
MEAN_ELEMENT_THEORY = SGP/SGP4

EPOCH          = 2025-12-09T03:29:25.320480
MEAN_MOTION    = 6.21471633
ECCENTRICITY   = .4565536
INCLINATION    = 23.8474
RA_OF_ASC_NODE = 165.3015
ARG_OF_PERICENTER = 231.3629
MEAN_ANOMALY   = 78.1844

EPHEMERIS_TYPE = 0
CLASSIFICATION_TYPE = U
NORAD_CAT_ID   = 84292
ELEMENT_SET_NO = 999
REV_AT_EPOCH   = 22784
BSTAR          = .23844E-2
MEAN_MOTION_DOT = .4329E-4
MEAN_MOTION_DDOT = 0

CCSDS_OMM_VERS = 2.0
CREATION_DATE  = 
ORIGINATOR     = 

OBJECT_NAME    = UNKNOWN
OBJECT_ID      = 
CENTER_NAME    = EARTH
REF_FRAME      = TEME
TIME_SYSTEM    = UTC
MEAN_ELEMENT_THEORY = SGP/SGP4

EPOCH          = 2025-12-10T16:27:23.393952
MEAN_MOTION    = 12.67327549
ECCENTRICITY   = .0040104
INCLINATION    = 101.7175
RA_OF_ASC_NODE = 128.8030
ARG_OF_PERICENTER = 42.6195
MEAN_ANOMALY   = 331.9484

EPHEMERIS_TYPE = 0
CLASSIFICATION_TYPE = U
NORAD_CAT_ID   = 84406
ELEMENT_SET_NO = 999
REV_AT_EPOCH   = 4903
BSTAR          = .54284E-2
MEAN_MOTION_DOT = .996E-5
MEAN_MOTION_DDOT = 0

CCSDS_OMM_VERS = 2.0
CREATION_DATE  = 
ORIGINATOR     = 

OBJECT_NAME    = UNKNOWN
OBJECT_ID      = 
CENTER_NAME    = EARTH
REF_FRAME      = TEME
TIME_SYSTEM    = UTC
MEAN_ELEMENT_THEORY = SGP/SGP4

EPOCH          = 2025-12-18T06:48:29.326464
MEAN_MOTION    = 2.05768662
ECCENTRICITY   = .7202282
INCLINATION    = 19.4861
RA_OF_ASC_NODE = 320.8514
ARG_OF_PERICENTER = 64.8435
MEAN_ANOMALY   = 351.3058

EPHEMERIS_TYPE = 0
CLASSIFICATION_TYPE = U
NORAD_CAT_ID   = 84407
ELEMENT_SET_NO = 999
REV_AT_EPOCH   = 7598
BSTAR          = .24013E-1
MEAN_MOTION_DOT = -.2E-6
MEAN_MOTION_DDOT = 0

CCSDS_OMM_VERS = 2.0
CREATION_DATE  = 
ORIGINATOR     = 

OBJECT_NAME    = UNKNOWN
OBJECT_ID      = 
CENTER_NAME    = EARTH
REF_FRAME      = TEME
TIME_SYSTEM    = UTC
MEAN_ELEMENT_THEORY = SGP/SGP4

EPOCH          = 2025-12-15T13:50:23.009280
MEAN_MOTION    = 2.19886827
ECCENTRICITY   = .7100283
INCLINATION    = 18.1224
RA_OF_ASC_NODE = 157.5669
ARG_OF_PERICENTER = 24.2282
MEAN_ANOMALY   = 357.0795

EPHEMERIS_TYPE = 0
CLASSIFICATION_TYPE = U
NORAD_CAT_ID   = 84575
ELEMENT_SET_NO = 999
REV_AT_EPOCH   = 6552
BSTAR          = .16162E-2
MEAN_MOTION_DOT = .68E-6
MEAN_MOTION_DDOT = 0

CCSDS_OMM_VERS = 2.0
CREATION_DATE  = 
ORIGINATOR     = 

OBJECT_NAME    = UNKNOWN
OBJECT_ID      = 
CENTER_NAME    = EARTH
REF_FRAME      = TEME
TIME_SYSTEM    = UTC
MEAN_ELEMENT_THEORY = SGP/SGP4

EPOCH          = 2025-12-18T14:09:06.752736
MEAN_MOTION    = 2.99958379
ECCENTRICITY   = .6576316
INCLINATION    = 2.0527
RA_OF_ASC_NODE = 241.3202
ARG_OF_PERICENTER = 61.2624
MEAN_ANOMALY   = 161.4146

EPHEMERIS_TYPE = 0
CLASSIFICATION_TYPE = U
NORAD_CAT_ID   = 84932
ELEMENT_SET_NO = 999
REV_AT_EPOCH   = 13195
BSTAR          = .49749E-2
MEAN_MOTION_DOT = .584E-5
MEAN_MOTION_DDOT = 0

